NORAD_CAT_ID,OBJECT_NAME,OBJECT_TYPE,EPOCH,MEAN_MOTION,ECCENTRICITY,INCLINATION,RA_OF_ASC_NODE,ARG_OF_PERICENTER,MEAN_ANOMALY,BSTAR,MEAN_MOTION_DOT,MEAN_MOTION_DDOT,TLE_LINE0,TLE_LINE1,TLE_LINE2,SEMIMAJOR_AXIS,PERIOD,APOGEE,PERIGEE,DECAYED
52267.0,STARLINK-3748,PAYLOAD,2023-08-15 17:33:12,15.08846985,0.0001061,53.2193,355.2889,80.6726,279.4386,0.00016866,2.398e-05,0.0,0 STARLINK-3748,1 52267U 22041G   23227.73139016  .00002398  00000-0  16866-3 0  9999,2 52267  53.2193 355.2889 0001061  80.6726 279.4386 15.08846985 74132,6917.859,95.437,540.458,538.99,0.0
52267.0,STARLINK-3748,PAYLOAD,2023-08-16 07:51:40,15.08838565,0.0001105,53.2193,352.6134,91.0997,269.0122,6.6156e-05,7.65e-06,0.0,0 STARLINK-3748,1 52267U 22041G   23228.32755342  .00000765  00000-0  66156-4 0  9995,2 52267  53.2193 352.6134 0001105  91.0997 269.0122 15.08838565 74229,6917.885,95.438,540.514,538.985,0.0
52267.0,STARLINK-3748,PAYLOAD,2023-08-17 09:17:51,15.08836785,0.0001538,53.2159,347.8563,89.2798,270.837,0.00025912,3.838e-05,0.0,0 STARLINK-3748,1 52267U 22041G   23229.38739591  .00003838  00000-0  25912-3 0  9998,2 52267  53.2159 347.8563 0001538  89.2798 270.8370 15.08836785 74385,6917.89,95.438,540.819,538.691,0.0
52267.0,STARLINK-3748,PAYLOAD,2023-08-18 17:05:33,15.08841069,0.00013,53.2161,341.9078,90.7077,269.4064,5.9294e-05,6.56e-06,0.0,0 STARLINK-3748,1 52267U 22041G   23230.71219439  .00000656  00000-0  59294-4 0  9997,2 52267  53.2161 341.9078 0001300  90.7077 269.4064 15.08841069 74585,6917.877,95.437,540.641,538.843,0.0
52267.0,STARLINK-3748,PAYLOAD,2023-08-20 10:25:35,15.08835188,0.0001302,53.2177,334.1788,81.2675,278.8464,8.3761e-05,1.045e-05,0.0,0 STARLINK-3748,1 52267U 22041G   23232.43443896  .00001045  00000-0  83761-4 0  9993,2 52267  53.2177 334.1788 0001302  81.2675 278.8464 15.08835188 74847,6917.895,95.438,540.661,538.859,0.0
52267.0,STARLINK-3748,PAYLOAD,2023-08-21 11:51:45,15.0884057,0.0001227,53.2186,329.4213,94.4339,265.6794,5.2954e-05,5.55e-06,0.0,0 STARLINK-3748,1 52267U 22041G   23233.49427769  .00000555  00000-0  52954-4 0  9996,2 52267  53.2186 329.4213 0001227  94.4339 265.6794 15.08840570 75006,6917.879,95.438,540.592,538.895,0.0
52267.0,STARLINK-3748,PAYLOAD,2023-08-22 11:42:32,15.08838456,0.00012,53.2189,324.961,97.7476,262.3653,5.5135e-05,5.9e-06,0.0,0 STARLINK-3748,1 52267U 22041G   23234.48788075  .00000590  00000-0  55135-4 0  9999,2 52267  53.2189 324.9610 0001200  97.7476 262.3653 15.08838456 75153,6917.885,95.438,540.58,538.92,0.0
52267.0,STARLINK-3748,PAYLOAD,2023-08-24 12:59:30,15.08841657,0.0001198,53.218,315.7421,89.9349,270.178,8.6008e-05,1.081e-05,0.0,0 STARLINK-3748,1 52267U 22041G   23236.54132158  .00001081  00000-0  86008-4 0  9992,2 52267  53.2180 315.7421 0001198  89.9349 270.1780 15.08841657 74244,6917.875,95.437,540.569,538.912,0.0
52267.0,STARLINK-3748,PAYLOAD,2023-08-25 11:14:54,15.08842318,0.0001419,53.2184,311.5811,73.7896,286.3252,7.3603e-05,8.84e-06,0.0,0 STARLINK-3748,1 52267U 22041G   23237.46868343  .00000884  00000-0  73603-4 0  9993,2 52267  53.2184 311.5811 0001419  73.7896 286.3252 15.08842318 74382,6917.873,95.437,540.72,538.757,0.0
52267.0,STARLINK-3748,PAYLOAD,2023-08-25 19:11:49,15.08847441,0.0001255,53.2176,310.0928,89.0922,271.0214,6.9479e-05,8.18e-06,0.0,0 STARLINK-3748,1 52267U 22041G   23237.79987830  .00000818  00000-0  69479-4 0  9995,2 52267  53.2176 310.0928 0001255  89.0922 271.0214 15.08847441 75656,6917.858,95.437,540.591,538.854,0.0
52267.0,STARLINK-3748,PAYLOAD,2023-08-26 11:05:41,15.08838718,0.0001357,53.2175,307.1206,81.8593,278.2553,2.7957e-05,1.57e-06,0.0,0 STARLINK-3748,1 52267U 22041G   23238.46228680  .00000157  00000-0  27957-4 0  9992,2 52267  53.2175 307.1206 0001357  81.8593 278.2553 15.08838718 75751,6917.884,95.438,540.688,538.811,0.0
52267.0,STARLINK-3748,PAYLOAD,2023-08-27 09:21:05,15.0884054,0.0001301,53.2172,302.9565,91.2714,268.8427,2.4116e-05,9.6e-07,0.0,0 STARLINK-3748,1 52267U 22041G   23239.38964624  .00000096  00000-0  24116-4 0  9995,2 52267  53.2172 302.9565 0001301  91.2714 268.8427 15.08840540 74679,6917.879,95.438,540.644,538.844,0.0
52267.0,STARLINK-3748,PAYLOAD,2023-08-27 10:56:28,15.08840482,0.0001335,53.2174,302.6594,93.2143,266.9002,3.5469e-05,2.77e-06,0.0,0 STARLINK-3748,1 52267U 22041G   23239.45588588  .00000277  00000-0  35469-4 0  9998,2 52267  53.2174 302.6594 0001335  93.2143 266.9002 15.08840482 74689,6917.879,95.438,540.667,538.82,0.0
52267.0,STARLINK-3748,PAYLOAD,2023-08-28 10:47:15,15.08842472,0.0001365,53.2178,298.1994,96.0655,264.0493,0.00010143,1.327e-05,0.0,0 STARLINK-3748,1 52267U 22041G   23240.44948345  .00001327  00000-0  10143-3 0  9998,2 52267  53.2178 298.1994 0001365  96.0655 264.0493 15.08842472 76055,6917.873,95.437,540.682,538.794,0.0
52267.0,STARLINK-3748,PAYLOAD,2023-08-28 20:19:34,15.08838541,0.0001356,53.2175,296.4149,94.5542,265.5605,5.729e-05,6.24e-06,0.0,0 STARLINK-3748,1 52267U 22041G   23240.84692694  .00000624  00000-0  57290-4 0  9999,2 52267  53.2175 296.4149 0001356  94.5542 265.5605 15.08838541 74896,6917.885,95.438,540.688,538.812,0.0
52267.0,STARLINK-3748,PAYLOAD,2023-08-29 02:41:07,15.088381,0.0001354,53.2175,295.2255,94.8647,265.25,6.0262e-05,6.71e-06,0.0,0 STARLINK-3748,1 52267U 22041G   23241.11188746  .00000671  00000-0  60262-4 0  9993,2 52267  53.2175 295.2255 0001354  94.8647 265.2500 15.08838100 76151,6917.886,95.438,540.688,538.815,0.0
52267.0,STARLINK-3748,PAYLOAD,2023-08-29 10:38:02,15.08839905,0.0001366,53.2175,293.7387,95.8205,264.2943,6.7516e-05,7.87e-06,0.0,0 STARLINK-3748,1 52267U 22041G   23241.44308643  .00000787  00000-0  67516-4 0  9996,2 52267  53.2175 293.7387 0001366  95.8205 264.2943 15.08839905 74987,6917.881,95.438,540.691,538.801,0.0
52267.0,STARLINK-3748,PAYLOAD,2023-08-30 07:18:04,15.08833124,0.0001298,53.2173,289.8728,93.2503,266.8638,-2.9812e-05,-7.62e-06,0.0,0 STARLINK-3748,1 52267U 22041G   23242.30421514 -.00000762  00000-0 -29812-4 0  9997,2 52267  53.2173 289.8728 0001298  93.2503 266.8638 15.08833124 76334,6917.901,95.438,540.664,538.868,0.0
52267.0,STARLINK-3748,PAYLOAD,2023-08-30 20:01:09,15.08836888,0.0001357,53.2174,287.4942,94.042,266.0727,-2.2949e-05,-6.53e-06,0.0,0 STARLINK-3748,1 52267U 22041G   23242.83413364 -.00000653  00000-0 -22949-4 0  9992,2 52267  53.2174 287.4942 0001357  94.0420 266.0727 15.08836888 75194,6917.89,95.438,540.694,538.816,0.0
52267.0,STARLINK-3748,PAYLOAD,2023-08-31 02:22:41,15.0883981,0.0001427,53.2175,286.3049,99.5433,260.5721,7.2404e-05,8.65e-06,0.0,0 STARLINK-3748,1 52267U 22041G   23243.09908974  .00000865  00000-0  72404-4 0  9991,2 52267  53.2175 286.3049 0001427  99.5433 260.5721 15.08839810 76454,6917.881,95.438,540.733,538.759,0.0
52267.0,STARLINK-3748,PAYLOAD,2023-09-01 11:45:47,15.08861165,0.0002408,53.2181,280.0653,83.3287,276.7979,-0.00024947,-4.259e-05,0.0,0 STARLINK-3748,1 52267U 22041G   23244.49012834 -.00004259  00000-0 -24947-3 0  9998,2 52267  53.2181 280.0653 0002408  83.3287 276.7979 15.08861165 76666,6917.816,95.436,541.347,538.015,0.0
52267.0,STARLINK-3748,PAYLOAD,2023-09-01 14:56:32,15.08856856,6.2e-05,53.2172,279.4667,131.1752,228.9293,6.4337e-05,7.37e-06,0.0,0 STARLINK-3748,1 52267U 22041G   23244.62259743  .00000737  00000-0  64337-4 0  9998,2 52267  53.2172 279.4667 0000620 131.1752 228.9293 15.08856856 75462,6917.829,95.436,540.123,539.265,0.0
52267.0,STARLINK-3748,PAYLOAD,2023-09-02 02:04:15,15.08853637,0.0001705,53.2125,277.3845,79.2697,280.8487,5.2764e-05,5.52e-06,0.0,0 STARLINK-3748,1 52267U 22041G   23245.08628485  .00000552  00000-0  52764-4 0  9998,2 52267  53.2125 277.3845 0001705  79.2697 280.8487 15.08853637 76759,6917.839,95.437,540.883,538.524,0.0
52267.0,STARLINK-3748,PAYLOAD,2023-09-02 08:25:47,15.08849829,0.0001569,53.2136,276.1933,86.557,273.5601,6.702e-05,7.79e-06,0.0,0 STARLINK-3748,1 52267U 22041G   23245.35124482  .00000779  00000-0  67020-4 0  9998,2 52267  53.2136 276.1933 0001569  86.5570 273.5601 15.08849829 75579,6917.85,95.437,540.801,538.63,0.0
52267.0,STARLINK-3748,PAYLOAD,2023-09-02 19:33:29,15.08846573,0.0001541,53.215,274.11,98.1339,261.9828,3.3413e-05,2.44e-06,0.0,0 STARLINK-3748,1 52267U 22041G   23245.81492730  .00000244  00000-0  33413-4 0  9999,2 52267  53.2150 274.1100 0001541  98.1339 261.9828 15.08846573 75644,6917.86,95.437,540.791,538.659,0.0
52267.0,STARLINK-3748,PAYLOAD,2023-09-03 01:55:02,15.08844189,0.0001653,53.2145,272.9203,98.9854,261.1325,5.0089e-06,-2.08e-06,0.0,0 STARLINK-3748,1 52267U 22041G   23246.07988874 -.00000208  00000-0  50089-5 0  9997,2 52267  53.2145 272.9203 0001653  98.9854 261.1325 15.08844189 76907,6917.868,95.437,540.876,538.589,0.0
52267.0,STARLINK-3748,PAYLOAD,2023-09-03 13:02:44,15.08846355,0.0001585,53.2165,270.8391,97.4606,262.6566,2.8665e-05,1.68e-06,0.0,0 STARLINK-3748,1 52267U 22041G   23246.54356546  .00000168  00000-0  28665-4 0  9992,2 52267  53.2165 270.8391 0001585  97.4606 262.6566 15.08846355 75759,6917.861,95.437,540.822,538.629,0.0
52267.0,STARLINK-3748,PAYLOAD,2023-09-04 01:45:50,15.08833124,0.0001762,53.216,268.4605,90.3078,269.8116,-4.9006e-05,-1.068e-05,0.0,0 STARLINK-3748,1 52267U 22041G   23247.07349749 -.00001068  00000-0 -49006-4 0  9992,2 52267  53.2160 268.4605 0001762  90.3078 269.8116 15.08833124 77052,6917.901,95.438,540.985,538.547,0.0
52267.0,STARLINK-3748,PAYLOAD,2023-09-04 08:07:22,15.08832841,0.0001704,53.2161,267.2713,91.883,268.2357,-3.7939e-05,-8.92e-06,0.0,0 STARLINK-3748,1 52267U 22041G   23247.33845833 -.00000892  00000-0 -37939-4 0  9992,2 52267  53.2161 267.2713 0001704  91.8830 268.2357 15.08832841 75871,6917.902,95.438,540.946,538.588,0.0
52267.0,STARLINK-3748,PAYLOAD,2023-09-05 12:44:18,15.088408,0.0001486,53.2166,261.9186,90.853,269.2632,6.7034e-05,7.79e-06,0.0,0 STARLINK-3748,1 52267U 22041G   23248.53077330  .00000779  00000-0  67034-4 0  9995,2 52267  53.2166 261.9186 0001486  90.8530 269.2632 15.08840800 76056,6917.878,95.438,540.771,538.715,0.0
